ONEWEB-0309             
1 49095U 21075W   23235.00347648  .00000045  00000+0  83236-4 0  9993
2 49095  87.9191 210.3862 0002652  80.8723 279.2708 13.17647716 99038
ONEWEB-0310             
1 49096U 21075X   23234.42442793  .00000466  00000+0  12590-2 0  9996
2 49096  87.9036 195.3330 0002328  83.9880 276.1514 13.12442408101117
ONEWEB-0311             
1 49097U 21075Y   23233.87078220  .00000007  00000+0 -15224-4 0  9996
2 49097  87.9189 210.6134 0001837  70.9286 289.2044 13.17653041 98941
ONEWEB-0312             
1 49098U 21075Z   23234.87059602  .00000003  00000+0 -24906-4 0  9994
2 49098  87.9189 210.3824 0002355  72.1526 287.9863 13.17645641 99034
ONEWEB-0313             
1 49099U 21075AA  23234.46982168  .00000007  00000+0 -15085-4 0  9994
2 49099  87.9185 210.4808 0002211  75.2075 284.9301 13.17649510 98995
ONEWEB-0314             
1 49100U 21075AB  23234.46348988  .00000061  00000+0  12443-3 0  9996
2 49100  87.9188 210.4903 0002378  70.7714 289.3674 13.17652646 98953
ONEWEB-0315             
1 49101U 21075AC  23234.39583201 -.00000146  00000+0 -44068-3 0  9992
2 49101  87.9032 195.3505 0001738  85.5033 274.6294 13.12443312101096
ONEWEB-0316             
1 49102U 21075AD  23235.12185195 -.00001983  00000+0 -50624-2 0  9999
2 49102  87.9216 180.1269 0002121  69.1768 290.9591 13.18694266102599
